{
  "type": "FeatureCollection",
  "features": [
    {
      "type": "Feature",
      "properties": {
        "norad_id": 34003,
        "name": "COSMOS 2251 DEB",
        "group": "cosmos-2251-debris",
        "lat": -30.00755065116504,
        "lon": -73.25215366365744,
        "alt_km": 918.3580648130364,
        "timestamp": "2025-12-06T03:35:02.279266+00:00",
        "meta_object_name": "COSMOS 2251 DEB",
        "meta_object_id": "1993-036GN",
        "meta_epoch": "2025-12-05T06:54:57.136320",
        "meta_mean_motion": 13.84083935,
        "meta_eccentricity": 0.02737403,
        "meta_inclination": 74.0783,
        "meta_ra_of_asc_node": 297.6851,
        "meta_arg_of_pericenter": 51.4486,
        "meta_mean_anomaly": 311.0828,
        "meta_ephemeris_type": 0,
        "meta_classification_type": "U",
        "meta_norad_cat_id": 34003,
        "meta_element_set_no": 999,
        "meta_rev_at_epoch": 84322,
        "meta_bstar": 0.0033221618,
        "meta_mean_motion_dot": 4.923e-05,
        "meta_mean_motion_ddot": 0,
        "tle_line1": "1 34003U 93036GN  25339.28816130  .00004923  00000+0  33222-2 0  9993",
        "tle_line2": "2 34003  74.0783 297.6851 0273740  51.4486 311.0828 13.84083935843226"
      },
      "geometry": {
        "type": "Point",
        "coordinates": [
          -73.25215366365744,
          -30.00755065116504
        ]
      }
    },
    {
      "type": "Feature",
      "properties": {
        "norad_id": 34004,
        "name": "COSMOS 2251 DEB",
        "group": "cosmos-2251-debris",
        "lat": -50.430292009055584,
        "lon": 165.736728353825,
        "alt_km": 741.8129174662317,
        "timestamp": "2025-12-06T03:35:02.279277+00:00",
        "meta_object_name": "COSMOS 2251 DEB",
        "meta_object_id": "1993-036GP",
        "meta_epoch": "2025-12-04T00:47:42.970272",
        "meta_mean_motion": 14.48867664,
        "meta_eccentricity": 0.0033078,
        "meta_inclination": 74.0351,
        "meta_ra_of_asc_node": 329.434,
        "meta_arg_of_pericenter": 342.8249,
        "meta_mean_anomaly": 17.1788,
        "meta_ephemeris_type": 0,
        "meta_classification_type": "U",
        "meta_norad_cat_id": 34004,
        "meta_element_set_no": 999,
        "meta_rev_at_epoch": 87904,
        "meta_bstar": 0.0027329388,
        "meta_mean_motion_dot": 0.00010395,
        "meta_mean_motion_ddot": 0,
        "tle_line1": "1 34004U 93036GP  25338.03313623  .00010395  00000+0  27329-2 0  9996",
        "tle_line2": "2 34004  74.0351 329.4340 0033078 342.8249  17.1788 14.48867664879045"
      },
      "geometry": {
        "type": "Point",
        "coordinates": [
          165.736728353825,
          -50.430292009055584
        ]
      }
    },
    {
      "type": "Feature",
      "properties": {
        "norad_id": 34005,
        "name": "COSMOS 2251 DEB",
        "group": "cosmos-2251-debris",
        "lat": -7.3373176088397045,
        "lon": -136.28764782885872,
        "alt_km": 746.490531557668,
        "timestamp": "2025-12-06T03:35:02.279287+00:00",
        "meta_object_name": "COSMOS 2251 DEB",
        "meta_object_id": "1993-036GQ",
        "meta_epoch": "2025-12-05T03:09:13.359168",
        "meta_mean_motion": 14.40295917,
        "meta_eccentricity": 0.00205518,
        "meta_inclination": 74.0451,
        "meta_ra_of_asc_node": 227.7034,
        "meta_arg_of_pericenter": 347.2897,
        "meta_mean_anomaly": 129.2733,
        "meta_ephemeris_type": 0,
        "meta_classification_type": "U",
        "meta_norad_cat_id": 34005,
        "meta_element_set_no": 999,
        "meta_rev_at_epoch": 88269,
        "meta_bstar": 0.00022285746,
        "meta_mean_motion_dot": 6.81e-06,
        "meta_mean_motion_ddot": 0,
        "tle_line1": "1 34005U 93036GQ  25339.13140462  .00000681  00000+0  22286-3 0  9993",
        "tle_line2": "2 34005  74.0451 227.7034 0020551 347.2897 129.2733 14.40295917882695"
      },
      "geometry": {
        "type": "Point",
        "coordinates": [
          -136.28764782885872,
          -7.3373176088397045
        ]
      }
    },
    {
      "type": "Feature",
      "properties": {
        "norad_id": 34006,
        "name": "COSMOS 2251 DEB",
        "group": "cosmos-2251-debris",
        "lat": 52.51124890260814,
        "lon": 178.43834565778525,
        "alt_km": 575.3327785171659,
        "timestamp": "2025-12-06T03:35:02.279298+00:00",
        "meta_object_name": "COSMOS 2251 DEB",
        "meta_object_id": "1993-036GR",
        "meta_epoch": "2025-12-04T14:39:52.591968",
        "meta_mean_motion": 14.93859238,
        "meta_eccentricity": 0.0012083,
        "meta_inclination": 74.0532,
        "meta_ra_of_asc_node": 159.643,
        "meta_arg_of_pericenter": 115.1728,
        "meta_mean_anomaly": 310.7171,
        "meta_ephemeris_type": 0,
        "meta_classification_type": "U",
        "meta_norad_cat_id": 34006,
        "meta_element_set_no": 999,
        "meta_rev_at_epoch": 88547,
        "meta_bstar": 0.0062185,
        "meta_mean_motion_dot": 0.00066767,
        "meta_mean_motion_ddot": 0,
        "tle_line1": "1 34006U 93036GR  25338.61102537  .00066767  00000+0  62185-2 0  9995",
        "tle_line2": "2 34006  74.0532 159.6430 0012083 115.1728 310.7171 14.93859238885477"
      },
      "geometry": {
        "type": "Point",
        "coordinates": [
          178.43834565778525,
          52.51124890260814
        ]
      }
    },
    {
      "type": "Feature",
      "properties": {
        "norad_id": 34007,
        "name": "COSMOS 2251 DEB",
        "group": "cosmos-2251-debris",
        "lat": -23.60514282978643,
        "lon": -7.610261043825463,
        "alt_km": 712.9356758743952,
        "timestamp": "2025-12-06T03:35:02.279309+00:00",
        "meta_object_name": "COSMOS 2251 DEB",
        "meta_object_id": "1993-036GS",
        "meta_epoch": "2025-12-05T03:06:30.740544",
        "meta_mean_motion": 14.64705069,
        "meta_eccentricity": 0.00446768,
        "meta_inclination": 74.0196,
        "meta_ra_of_asc_node": 1.5455,
        "meta_arg_of_pericenter": 138.8829,
        "meta_mean_anomaly": 221.5721,
        "meta_ephemeris_type": 0,
        "meta_classification_type": "U",
        "meta_norad_cat_id": 34007,
        "meta_element_set_no": 999,
        "meta_rev_at_epoch": 88968,
        "meta_bstar": 0.001468398,
        "meta_mean_motion_dot": 7.91e-05,
        "meta_mean_motion_ddot": 0,
        "tle_line1": "1 34007U 93036GS  25339.12952246  .00007910  00000+0  14684-2 0  9999",
        "tle_line2": "2 34007  74.0196   1.5455 0044676 138.8829 221.5721 14.64705069889680"
      },
      "geometry": {
        "type": "Point",
        "coordinates": [
          -7.610261043825463,
          -23.60514282978643
        ]
      }
    },
    {
      "type": "Feature",
      "properties": {
        "norad_id": 34008,
        "name": "COSMOS 2251 DEB",
        "group": "cosmos-2251-debris",
        "lat": 63.96972611841368,
        "lon": 18.450911447508876,
        "alt_km": 774.6789635846089,
        "timestamp": "2025-12-06T03:35:02.279319+00:00",
        "meta_object_name": "COSMOS 2251 DEB",
        "meta_object_id": "1993-036GT",
        "meta_epoch": "2025-12-05T04:09:31.913856",
        "meta_mean_motion": 14.3313793,
        "meta_eccentricity": 0.00240407,
        "meta_inclination": 74.0342,
        "meta_ra_of_asc_node": 344.3473,
        "meta_arg_of_pericenter": 341.039,
        "meta_mean_anomaly": 94.2031,
        "meta_ephemeris_type": 0,
        "meta_classification_type": "U",
        "meta_norad_cat_id": 34008,
        "meta_element_set_no": 999,
        "meta_rev_at_epoch": 87856,
        "meta_bstar": 0.00021432921,
        "meta_mean_motion_dot": 5.64e-06,
        "meta_mean_motion_ddot": 0,
        "tle_line1": "1 34008U 93036GT  25339.17328604  .00000564  00000+0  21433-3 0  9999",
        "tle_line2": "2 34008  74.0342 344.3473 0024040 341.0390  94.2031 14.33137930878562"
      },
      "geometry": {
        "type": "Point",
        "coordinates": [
          18.450911447508876,
          63.96972611841368
        ]
      }
    },
    {
      "type": "Feature",
      "properties": {
        "norad_id": 34009,
        "name": "COSMOS 2251 DEB",
        "group": "cosmos-2251-debris",
        "lat": 69.30683668580168,
        "lon": 119.7154638068135,
        "alt_km": 760.0243323710683,
        "timestamp": "2025-12-06T03:35:02.279330+00:00",
        "meta_object_name": "COSMOS 2251 DEB",
        "meta_object_id": "1993-036GU",
        "meta_epoch": "2025-12-05T03:58:47.620416",
        "meta_mean_motion": 14.33213252,
        "meta_eccentricity": 0.00262958,
        "meta_inclination": 74.0372,
        "meta_ra_of_asc_node": 350.7784,
        "meta_arg_of_pericenter": 62.839,
        "meta_mean_anomaly": 7.8481,
        "meta_ephemeris_type": 0,
        "meta_classification_type": "U",
        "meta_norad_cat_id": 34009,
        "meta_element_set_no": 999,
        "meta_rev_at_epoch": 87837,
        "meta_bstar": 0.00025159561,
        "meta_mean_motion_dot": 6.68e-06,
        "meta_mean_motion_ddot": 0,
        "tle_line1": "1 34009U 93036GU  25339.16582894  .00000668  00000+0  25160-3 0  9998",
        "tle_line2": "2 34009  74.0372 350.7784 0026295  62.8390   7.8481 14.33213252878374"
      },
      "geometry": {
        "type": "Point",
        "coordinates": [
          119.7154638068135,
          69.30683668580168
        ]
      }
    }
  ]
}